{
  "type": "FeatureCollection",
  "features": [
    {
      "type": "Feature",
      "properties": {
        "norad_id": 34972,
        "name": "COSMOS 2251 DEB",
        "group": "cosmos-2251-debris",
        "lat": -32.09535927193993,
        "lon": -140.21884160299976,
        "alt_km": 636.4514445332115,
        "timestamp": "2025-12-23T05:02:12.425506+00:00",
        "meta_object_name": "COSMOS 2251 DEB",
        "meta_object_id": "1993-036AFB",
        "meta_epoch": "2025-12-20T04:37:09.782112",
        "meta_mean_motion": 14.72993078,
        "meta_eccentricity": 0.0033079,
        "meta_inclination": 73.988,
        "meta_ra_of_asc_node": 35.2981,
        "meta_arg_of_pericenter": 193.0312,
        "meta_mean_anomaly": 226.1658,
        "meta_ephemeris_type": 0,
        "meta_classification_type": "U",
        "meta_norad_cat_id": 34972,
        "meta_element_set_no": 999,
        "meta_rev_at_epoch": 87760,
        "meta_bstar": 0.00080503,
        "meta_mean_motion_dot": 5.185e-05,
        "meta_mean_motion_ddot": 0,
        "tle_line1": "1 34972U 93036AFB 25354.19247433  .00005185  00000+0  80503-3 0  9995",
        "tle_line2": "2 34972  73.9880  35.2981 0033079 193.0312 226.1658 14.72993078877609"
      },
      "geometry": {
        "type": "Point",
        "coordinates": [
          -140.21884160299976,
          -32.09535927193993
        ]
      }
    },
    {
      "type": "Feature",
      "properties": {
        "norad_id": 34976,
        "name": "COSMOS 2251 DEB",
        "group": "cosmos-2251-debris",
        "lat": 73.80969179291743,
        "lon": 5.647417479145346,
        "alt_km": 647.1793845998309,
        "timestamp": "2025-12-23T05:02:12.425516+00:00",
        "meta_object_name": "COSMOS 2251 DEB",
        "meta_object_id": "1993-036AFF",
        "meta_epoch": "2025-12-22T20:46:21.906912",
        "meta_mean_motion": 14.7677373,
        "meta_eccentricity": 0.00478521,
        "meta_inclination": 74.0584,
        "meta_ra_of_asc_node": 286.4319,
        "meta_arg_of_pericenter": 331.0215,
        "meta_mean_anomaly": 85.833,
        "meta_ephemeris_type": 0,
        "meta_classification_type": "U",
        "meta_norad_cat_id": 34976,
        "meta_element_set_no": 999,
        "meta_rev_at_epoch": 88423,
        "meta_bstar": 0.001579307,
        "meta_mean_motion_dot": 0.00011269,
        "meta_mean_motion_ddot": 0,
        "tle_line1": "1 34976U 93036AFF 25356.86553133  .00011269  00000+0  15793-2 0  9990",
        "tle_line2": "2 34976  74.0584 286.4319 0047852 331.0215  85.8330 14.76773730884230"
      },
      "geometry": {
        "type": "Point",
        "coordinates": [
          5.647417479145346,
          73.80969179291743
        ]
      }
    },
    {
      "type": "Feature",
      "properties": {
        "norad_id": 34979,
        "name": "COSMOS 2251 DEB",
        "group": "cosmos-2251-debris",
        "lat": -55.36019859480563,
        "lon": 91.13476717351033,
        "alt_km": 633.5274079175088,
        "timestamp": "2025-12-23T05:02:12.425526+00:00",
        "meta_object_name": "COSMOS 2251 DEB",
        "meta_object_id": "1993-036AFJ",
        "meta_epoch": "2025-12-22T16:35:49.545024",
        "meta_mean_motion": 14.7951388,
        "meta_eccentricity": 0.00491991,
        "meta_inclination": 74.0391,
        "meta_ra_of_asc_node": 247.682,
        "meta_arg_of_pericenter": 323.5515,
        "meta_mean_anomaly": 36.2314,
        "meta_ephemeris_type": 0,
        "meta_classification_type": "U",
        "meta_norad_cat_id": 34979,
        "meta_element_set_no": 999,
        "meta_rev_at_epoch": 88367,
        "meta_bstar": 0.0010881328,
        "meta_mean_motion_dot": 8.281e-05,
        "meta_mean_motion_ddot": 0,
        "tle_line1": "1 34979U 93036AFJ 25356.69154566  .00008281  00000+0  10881-2 0  9994",
        "tle_line2": "2 34979  74.0391 247.6820 0049199 323.5515  36.2314 14.79513880883670"
      },
      "geometry": {
        "type": "Point",
        "coordinates": [
          91.13476717351033,
          -55.36019859480563
        ]
      }
    },
    {
      "type": "Feature",
      "properties": {
        "norad_id": 34990,
        "name": "COSMOS 2251 DEB",
        "group": "cosmos-2251-debris",
        "lat": 26.878575958902548,
        "lon": -119.73138469072059,
        "alt_km": 750.2997167679068,
        "timestamp": "2025-12-23T05:02:12.425536+00:00",
        "meta_object_name": "COSMOS 2251 DEB",
        "meta_object_id": "1993-036AFN",
        "meta_epoch": "2025-12-15T10:28:28.781472",
        "meta_mean_motion": 14.42382837,
        "meta_eccentricity": 0.00165597,
        "meta_inclination": 74.0457,
        "meta_ra_of_asc_node": 246.3361,
        "meta_arg_of_pericenter": 308.9911,
        "meta_mean_anomaly": 50.977,
        "meta_ephemeris_type": 0,
        "meta_classification_type": "U",
        "meta_norad_cat_id": 34990,
        "meta_element_set_no": 999,
        "meta_rev_at_epoch": 87385,
        "meta_bstar": 0.00031884459,
        "meta_mean_motion_dot": 1.029e-05,
        "meta_mean_motion_ddot": 0,
        "tle_line1": "1 34990U 93036AFN 25349.43644423  .00001029  00000+0  31884-3 0  9997",
        "tle_line2": "2 34990  74.0457 246.3361 0016559 308.9911  50.9770 14.42382837873857"
      },
      "geometry": {
        "type": "Point",
        "coordinates": [
          -119.73138469072059,
          26.878575958902548
        ]
      }
    },
    {
      "type": "Feature",
      "properties": {
        "norad_id": 34997,
        "name": "COSMOS 2251 DEB",
        "group": "cosmos-2251-debris",
        "lat": -41.6455925541985,
        "lon": -83.4189125319638,
        "alt_km": 702.5698757182699,
        "timestamp": "2025-12-23T05:02:12.425546+00:00",
        "meta_object_name": "COSMOS 2251 DEB",
        "meta_object_id": "1993-036AFV",
        "meta_epoch": "2025-12-22T02:39:53.440416",
        "meta_mean_motion": 14.45657457,
        "meta_eccentricity": 0.0097328,
        "meta_inclination": 73.8808,
        "meta_ra_of_asc_node": 293.5509,
        "meta_arg_of_pericenter": 267.0492,
        "meta_mean_anomaly": 91.9523,
        "meta_ephemeris_type": 0,
        "meta_classification_type": "U",
        "meta_norad_cat_id": 34997,
        "meta_element_set_no": 999,
        "meta_rev_at_epoch": 70882,
        "meta_bstar": 0.0015391452,
        "meta_mean_motion_dot": 5.746e-05,
        "meta_mean_motion_ddot": 0,
        "tle_line1": "1 34997U 93036AFV 25356.11103519  .00005746  00000+0  15391-2 0  9997",
        "tle_line2": "2 34997  73.8808 293.5509 0097328 267.0492  91.9523 14.45657457708822"
      },
      "geometry": {
        "type": "Point",
        "coordinates": [
          -83.4189125319638,
          -41.6455925541985
        ]
      }
    },
    {
      "type": "Feature",
      "properties": {
        "norad_id": 34998,
        "name": "COSMOS 2251 DEB",
        "group": "cosmos-2251-debris",
        "lat": -25.662152119958712,
        "lon": 132.39716096772878,
        "alt_km": 723.1312227196013,
        "timestamp": "2025-12-23T05:02:12.425556+00:00",
        "meta_object_name": "COSMOS 2251 DEB",
        "meta_object_id": "1993-036AFW",
        "meta_epoch": "2025-12-22T03:28:26.266080",
        "meta_mean_motion": 14.49318679,
        "meta_eccentricity": 0.00214468,
        "meta_inclination": 74.0103,
        "meta_ra_of_asc_node": 142.3159,
        "meta_arg_of_pericenter": 286.5677,
        "meta_mean_anomaly": 251.5263,
        "meta_ephemeris_type": 0,
        "meta_classification_type": "U",
        "meta_norad_cat_id": 34998,
        "meta_element_set_no": 999,
        "meta_rev_at_epoch": 87556,
        "meta_bstar": 0.00058847392,
        "meta_mean_motion_dot": 2.226e-05,
        "meta_mean_motion_ddot": 0,
        "tle_line1": "1 34998U 93036AFW 25356.14474845  .00002226  00000+0  58847-3 0  9998",
        "tle_line2": "2 34998  74.0103 142.3159 0021446 286.5677 251.5263 14.49318679875560"
      },
      "geometry": {
        "type": "Point",
        "coordinates": [
          132.39716096772878,
          -25.662152119958712
        ]
      }
    },
    {
      "type": "Feature",
      "properties": {
        "norad_id": 35012,
        "name": "COSMOS 2251 DEB",
        "group": "cosmos-2251-debris",
        "lat": 14.65141792031065,
        "lon": -92.10034938849626,
        "alt_km": 716.2801031272174,
        "timestamp": "2025-12-23T05:02:12.425565+00:00",
        "meta_object_name": "COSMOS 2251 DEB",
        "meta_object_id": "1993-036AFZ",
        "meta_epoch": "2025-12-22T16:38:38.272128",
        "meta_mean_motion": 14.45560841,
        "meta_eccentricity": 0.00814852,
        "meta_inclination": 74.0208,
        "meta_ra_of_asc_node": 93.1592,
        "meta_arg_of_pericenter": 231.2389,
        "meta_mean_anomaly": 128.147,
        "meta_ephemeris_type": 0,
        "meta_classification_type": "U",
        "meta_norad_cat_id": 35012,
        "meta_element_set_no": 999,
        "meta_rev_at_epoch": 87705,
        "meta_bstar": 0.00016031267,
        "meta_mean_motion_dot": 5.6e-06,
        "meta_mean_motion_ddot": 0,
        "tle_line1": "1 35012U 93036AFZ 25356.69349852  .00000560  00000+0  16031-3 0  9993",
        "tle_line2": "2 35012  74.0208  93.1592 0081485 231.2389 128.1470 14.45560841877055"
      },
      "geometry": {
        "type": "Point",
        "coordinates": [
          -92.10034938849626,
          14.65141792031065
        ]
      }
    }
  ]
}